{
  "type": "FeatureCollection",
  "features": [
    {
      "type": "Feature",
      "properties": {
        "norad_id": 66802,
        "name": "STARLINK-35604",
        "group": "last-30-days",
        "lat": -42.30519265903469,
        "lon": 163.69000627703645,
        "alt_km": 303.2179634253862,
        "timestamp": "2025-12-14T11:29:48.799273+00:00",
        "meta_object_name": "STARLINK-35604",
        "meta_object_id": "2025-278M",
        "meta_epoch": "2025-12-13T14:42:17.346528",
        "meta_mean_motion": 15.87709486,
        "meta_eccentricity": 0.00102841,
        "meta_inclination": 42.9957,
        "meta_ra_of_asc_node": 246.6912,
        "meta_arg_of_pericenter": 262.3065,
        "meta_mean_anomaly": 97.6641,
        "meta_ephemeris_type": 0,
        "meta_classification_type": "U",
        "meta_norad_cat_id": 66802,
        "meta_element_set_no": 999,
        "meta_rev_at_epoch": 197,
        "meta_bstar": 0.0016235531,
        "meta_mean_motion_dot": 0.00475586,
        "meta_mean_motion_ddot": 0,
        "tle_line1": "1 66802U 25278M   25347.61270077  .00475586  00000+0  16236-2 0  9991",
        "tle_line2": "2 66802  42.9957 246.6912 0010284 262.3065  97.6641 15.87709486  1974"
      },
      "geometry": {
        "type": "Point",
        "coordinates": [
          163.69000627703645,
          -42.30519265903469
        ]
      }
    },
    {
      "type": "Feature",
      "properties": {
        "norad_id": 66803,
        "name": "STARLINK-35565",
        "group": "last-30-days",
        "lat": -42.867724980009,
        "lon": 146.37334191929546,
        "alt_km": 328.6725724478292,
        "timestamp": "2025-12-14T11:29:48.799283+00:00",
        "meta_object_name": "STARLINK-35565",
        "meta_object_id": "2025-278N",
        "meta_epoch": "2025-12-12T19:02:38.302368",
        "meta_mean_motion": 15.88166969,
        "meta_eccentricity": 0.00047766,
        "meta_inclination": 42.9974,
        "meta_ra_of_asc_node": 251.7329,
        "meta_arg_of_pericenter": 311.8639,
        "meta_mean_anomaly": 48.1827,
        "meta_ephemeris_type": 0,
        "meta_classification_type": "U",
        "meta_norad_cat_id": 66803,
        "meta_element_set_no": 999,
        "meta_rev_at_epoch": 184,
        "meta_bstar": -0.0087251966,
        "meta_mean_motion_dot": -0.02134789,
        "meta_mean_motion_ddot": 0,
        "tle_line1": "1 66803U 25278N   25346.79349887 -.02134789  00000+0 -87252-2 0  9993",
        "tle_line2": "2 66803  42.9974 251.7329 0004776 311.8639  48.1827 15.88166969  1846"
      },
      "geometry": {
        "type": "Point",
        "coordinates": [
          146.37334191929546,
          -42.867724980009
        ]
      }
    },
    {
      "type": "Feature",
      "properties": {
        "norad_id": 66804,
        "name": "STARLINK-36038",
        "group": "last-30-days",
        "lat": -42.937879212442496,
        "lon": 154.31255127249585,
        "alt_km": 324.8479323009042,
        "timestamp": "2025-12-14T11:29:48.799295+00:00",
        "meta_object_name": "STARLINK-36038",
        "meta_object_id": "2025-278P",
        "meta_epoch": "2025-12-13T16:11:07.804896",
        "meta_mean_motion": 15.85456012,
        "meta_eccentricity": 0.00063243,
        "meta_inclination": 42.9971,
        "meta_ra_of_asc_node": 246.2916,
        "meta_arg_of_pericenter": 261.1352,
        "meta_mean_anomaly": 98.8805,
        "meta_ephemeris_type": 0,
        "meta_classification_type": "U",
        "meta_norad_cat_id": 66804,
        "meta_element_set_no": 999,
        "meta_rev_at_epoch": 198,
        "meta_bstar": -0.011294964,
        "meta_mean_motion_dot": -0.02430351,
        "meta_mean_motion_ddot": 0,
        "tle_line1": "1 66804U 25278P   25347.67439589 -.02430351  00000+0 -11295-1 0  9998",
        "tle_line2": "2 66804  42.9971 246.2916 0006324 261.1352  98.8805 15.85456012  1986"
      },
      "geometry": {
        "type": "Point",
        "coordinates": [
          154.31255127249585,
          -42.937879212442496
        ]
      }
    },
    {
      "type": "Feature",
      "properties": {
        "norad_id": 66805,
        "name": "STARLINK-36049",
        "group": "last-30-days",
        "lat": -42.06044322995324,
        "lon": 165.75981558895475,
        "alt_km": 317.93952952161453,
        "timestamp": "2025-12-14T11:29:48.799307+00:00",
        "meta_object_name": "STARLINK-36049",
        "meta_object_id": "2025-278Q",
        "meta_epoch": "2025-12-13T02:34:04.423296",
        "meta_mean_motion": 15.86735504,
        "meta_eccentricity": 0.00054756,
        "meta_inclination": 42.9968,
        "meta_ra_of_asc_node": 249.7806,
        "meta_arg_of_pericenter": 256.6916,
        "meta_mean_anomaly": 103.3347,
        "meta_ephemeris_type": 0,
        "meta_classification_type": "U",
        "meta_norad_cat_id": 66805,
        "meta_element_set_no": 999,
        "meta_rev_at_epoch": 189,
        "meta_bstar": -0.0037719056,
        "meta_mean_motion_dot": -0.00902717,
        "meta_mean_motion_ddot": 0,
        "tle_line1": "1 66805U 25278Q   25347.10699564 -.00902717  00000+0 -37719-2 0  9996",
        "tle_line2": "2 66805  42.9968 249.7806 0005475 256.6916 103.3347 15.86735504  1890"
      },
      "geometry": {
        "type": "Point",
        "coordinates": [
          165.75981558895475,
          -42.06044322995324
        ]
      }
    },
    {
      "type": "Feature",
      "properties": {
        "norad_id": 66806,
        "name": "STARLINK-36069",
        "group": "last-30-days",
        "lat": -13.037217187187268,
        "lon": -133.1958189843372,
        "alt_km": 256.11305807891677,
        "timestamp": "2025-12-14T11:29:48.799317+00:00",
        "meta_object_name": "STARLINK-36069",
        "meta_object_id": "2025-278R",
        "meta_epoch": "2025-12-12T23:33:28.013472",
        "meta_mean_motion": 15.89964578,
        "meta_eccentricity": 0.00095169,
        "meta_inclination": 42.9955,
        "meta_ra_of_asc_node": 250.5622,
        "meta_arg_of_pericenter": 265.6965,
        "meta_mean_anomaly": 94.2822,
        "meta_ephemeris_type": 0,
        "meta_classification_type": "U",
        "meta_norad_cat_id": 66806,
        "meta_element_set_no": 999,
        "meta_rev_at_epoch": 187,
        "meta_bstar": 0.012088276,
        "meta_mean_motion_dot": 0.03313883,
        "meta_mean_motion_ddot": 0.010113462,
        "tle_line1": "1 66806U 25278R   25346.98157423  .03313883  10113-1  12088-1 0  9995",
        "tle_line2": "2 66806  42.9955 250.5622 0009516 265.6965  94.2822 15.89964578  1879"
      },
      "geometry": {
        "type": "Point",
        "coordinates": [
          -133.1958189843372,
          -13.037217187187268
        ]
      }
    },
    {
      "type": "Feature",
      "properties": {
        "norad_id": 66807,
        "name": "STARLINK-36000",
        "group": "last-30-days",
        "lat": -37.59846183726467,
        "lon": -174.45415845851636,
        "alt_km": 301.6307997523436,
        "timestamp": "2025-12-14T11:29:48.799329+00:00",
        "meta_object_name": "STARLINK-36000",
        "meta_object_id": "2025-278S",
        "meta_epoch": "2025-12-13T14:38:04.355232",
        "meta_mean_motion": 15.87831279,
        "meta_eccentricity": 0.00135246,
        "meta_inclination": 42.9961,
        "meta_ra_of_asc_node": 246.6676,
        "meta_arg_of_pericenter": 255.2326,
        "meta_mean_anomaly": 104.7049,
        "meta_ephemeris_type": 0,
        "meta_classification_type": "U",
        "meta_norad_cat_id": 66807,
        "meta_element_set_no": 999,
        "meta_rev_at_epoch": 197,
        "meta_bstar": 0.0018963267,
        "meta_mean_motion_dot": 0.00566093,
        "meta_mean_motion_ddot": 0,
        "tle_line1": "1 66807U 25278S   25347.60977263  .00566093  00000+0  18963-2 0  9999",
        "tle_line2": "2 66807  42.9961 246.6676 0013524 255.2326 104.7049 15.87831279  1970"
      },
      "geometry": {
        "type": "Point",
        "coordinates": [
          -174.45415845851636,
          -37.59846183726467
        ]
      }
    },
    {
      "type": "Feature",
      "properties": {
        "norad_id": 66808,
        "name": "STARLINK-36071",
        "group": "last-30-days",
        "lat": -41.55372912586705,
        "lon": 169.26642393036923,
        "alt_km": 318.0923014927939,
        "timestamp": "2025-12-14T11:29:48.799340+00:00",
        "meta_object_name": "STARLINK-36071",
        "meta_object_id": "2025-278T",
        "meta_epoch": "2025-12-13T14:38:42.056736",
        "meta_mean_motion": 15.85022337,
        "meta_eccentricity": 0.00035355,
        "meta_inclination": 42.997,
        "meta_ra_of_asc_node": 246.6701,
        "meta_arg_of_pericenter": 255.4186,
        "meta_mean_anomaly": 104.6295,
        "meta_ephemeris_type": 0,
        "meta_classification_type": "U",
        "meta_norad_cat_id": 66808,
        "meta_element_set_no": 999,
        "meta_rev_at_epoch": 197,
        "meta_bstar": -0.00065689897,
        "meta_mean_motion_dot": -0.00157384,
        "meta_mean_motion_ddot": 0,
        "tle_line1": "1 66808U 25278T   25347.61020899 -.00157384  00000+0 -65690-3 0  9996",
        "tle_line2": "2 66808  42.9970 246.6701 0003535 255.4186 104.6295 15.85022337  1974"
      },
      "geometry": {
        "type": "Point",
        "coordinates": [
          169.26642393036923,
          -41.55372912586705
        ]
      }
    }
  ]
}